NORAD_CAT_ID,OBJECT_NAME,OBJECT_TYPE,EPOCH,MEAN_MOTION,ECCENTRICITY,INCLINATION,RA_OF_ASC_NODE,ARG_OF_PERICENTER,MEAN_ANOMALY,BSTAR,MEAN_MOTION_DOT,MEAN_MOTION_DDOT,TLE_LINE0,TLE_LINE1,TLE_LINE2,SEMIMAJOR_AXIS,PERIOD,APOGEE,PERIGEE,DECAYED
53534.0,STARLINK-4488,PAYLOAD,2023-11-28 22:02:21,15.0884431,0.0001579,53.2158,207.8216,82.6956,277.4215,0.00032454,4.881e-05,0.0,0 STARLINK-4488,1 53534U 22101H   23332.91830019  .00004881  00000-0  32454-3 0  9992,2 53534  53.2158 207.8216 0001579  82.6956 277.4215 15.08844310 70605,6917.867,95.437,540.825,538.64,0.0
53534.0,STARLINK-4488,PAYLOAD,2023-11-28 23:37:44,15.08846161,0.0001544,53.2156,207.5251,84.0337,276.0831,0.00037095,5.622e-05,0.0,0 STARLINK-4488,1 53534U 22101H   23332.98453971  .00005622  00000-0  37095-3 0  9997,2 53534  53.2156 207.5251 0001544  84.0337 276.0831 15.08846161 70616,6917.862,95.437,540.795,538.658,0.0
53534.0,STARLINK-4488,PAYLOAD,2023-11-30 01:03:54,15.08849497,0.0001433,53.2156,202.7624,87.8741,272.2415,0.00026245,3.892e-05,0.0,0 STARLINK-4488,1 53534U 22101H   23334.04437649  .00003892  00000-0  26245-3 0  9992,2 53534  53.2156 202.7624 0001433  87.8741 272.2415 15.08849497 70772,6917.851,95.437,540.708,538.725,0.0
53534.0,STARLINK-4488,PAYLOAD,2023-11-30 20:08:31,15.08843013,0.0001526,53.2163,199.1866,107.8754,252.2405,0.0001973,2.854e-05,0.0,0 STARLINK-4488,1 53534U 22101H   23334.83925788  .00002854  00000-0  19730-3 0  9993,2 53534  53.2163 199.1866 0001526 107.8754 252.2405 15.08843013 70895,6917.871,95.437,540.792,538.681,0.0
53534.0,STARLINK-4488,PAYLOAD,2023-12-01 21:34:41,15.0885406,0.0001538,53.2164,194.4337,87.9565,272.1604,0.00045018,6.887e-05,0.0,0 STARLINK-4488,1 53534U 22101H   23335.89909707  .00006887  00000-0  45018-3 0  9991,2 53534  53.2164 194.4337 0001538  87.9565 272.1604 15.08854060 71053,6917.837,95.437,540.766,538.638,0.0
53534.0,STARLINK-4488,PAYLOAD,2023-12-02 00:45:28,15.08857139,0.0001439,53.2163,193.8381,96.188,263.9276,0.00052643,8.104e-05,0.0,0 STARLINK-4488,1 53534U 22101H   23336.03157484  .00008104  00000-0  52643-3 0  9991,2 53534  53.2163 193.8381 0001439  96.1880 263.9276 15.08857139 71071,6917.828,95.436,540.688,538.698,0.0
53534.0,STARLINK-4488,PAYLOAD,2023-12-02 19:50:06,15.08838174,0.0001505,53.2158,190.2738,109.9231,250.1924,-2.2294e-05,-6.43e-06,0.0,0 STARLINK-4488,1 53534U 22101H   23336.82645946 -.00000643  00000-0 -22294-4 0  9995,2 53534  53.2158 190.2738 0001505 109.9231 250.1924 15.08838174 71198,6917.886,95.438,540.792,538.71,0.0
53534.0,STARLINK-4488,PAYLOAD,2023-12-03 14:54:44,15.08831942,0.0001431,53.2155,186.705,107.2286,252.8862,7.0863e-05,8.4e-06,0.0,0 STARLINK-4488,1 53534U 22101H   23337.62134591  .00000840  00000-0  70863-4 0  9995,2 53534  53.2155 186.7050 0001431 107.2286 252.8862 15.08831942 71311,6917.905,95.438,540.76,538.78,0.0
53534.0,STARLINK-4488,PAYLOAD,2023-12-03 19:40:53,15.08831089,0.0001444,53.215,185.8038,108.7477,251.3672,-4.1476e-05,-9.48e-06,0.0,0 STARLINK-4488,1 53534U 22101H   23337.82006634 -.00000948  00000-0 -41476-4 0  9992,2 53534  53.2150 185.8038 0001444 108.7477 251.3672 15.08831089 71342,6917.908,95.438,540.772,538.774,0.0
53534.0,STARLINK-4488,PAYLOAD,2023-12-04 22:42:30,15.08795366,0.0001482,53.2149,180.7566,105.7192,254.3963,-0.00025054,-4.268e-05,0.0,0 STARLINK-4488,1 53534U 22101H   23338.94618786 -.00004268  00000-0 -25054-3 0  9995,2 53534  53.2149 180.7566 0001482 105.7192 254.3963 15.08795366 71515,6918.017,95.44,540.907,538.857,0.0
53534.0,STARLINK-4488,PAYLOAD,2023-12-05 13:00:58,15.08831058,9.42e-05,53.215,178.077,139.8912,220.2149,0.00032455,4.88e-05,0.0,0 STARLINK-4488,1 53534U 22101H   23339.54234273  .00004880  00000-0  32455-3 0  9998,2 53534  53.2150 178.0770 0000942 139.8912 220.2149 15.08831058 71609,6917.908,95.438,540.424,539.121,0.0
53534.0,STARLINK-4488,PAYLOAD,2023-12-05 16:11:44,15.08840416,0.0001445,53.215,177.4881,88.2226,271.8932,0.00046534,7.126e-05,0.0,0 STARLINK-4488,1 53534U 22101H   23339.67482346  .00007126  00000-0  46534-3 0  9997,2 53534  53.2150 177.4881 0001445  88.2226 271.8932 15.08840416 71621,6917.879,95.438,540.744,538.744,0.0
53534.0,STARLINK-4488,PAYLOAD,2023-12-06 22:24:03,15.08859911,0.0001574,53.2153,171.8371,91.5755,268.5418,0.00050154,7.707e-05,0.0,0 STARLINK-4488,1 53534U 22101H   23340.93336836  .00007707  00000-0  50154-3 0  9998,2 53534  53.2153 171.8371 0001574  91.5755 268.5418 15.08859911 71816,6917.82,95.436,540.773,538.596,0.0
53534.0,STARLINK-4488,PAYLOAD,2023-12-07 12:42:29,15.08884528,0.0001339,53.215,169.1615,86.4543,273.6603,0.00047304,7.258e-05,0.0,0 STARLINK-4488,1 53534U 22101H   23341.52950556  .00007258  00000-0  47304-3 0  9999,2 53534  53.2150 169.1615 0001339  86.4543 273.6603 15.08884528 71906,6917.744,95.435,540.536,538.683,0.0
53534.0,STARLINK-4488,PAYLOAD,2023-12-08 12:33:15,15.08861462,0.0003184,53.2154,164.7001,312.686,47.3864,0.00024017,3.538e-05,0.0,0 STARLINK-4488,1 53534U 22101H   23342.52309429  .00003538  00000-0  24017-3 0  9990,2 53534  53.2154 164.7001 0003184 312.6860  47.3864 15.08861462 72050,6917.815,95.436,541.882,537.477,0.0
53534.0,STARLINK-4488,PAYLOAD,2023-12-09 15:34:49,15.08828377,0.0002035,53.2142,159.6465,78.5654,281.5567,-1.2433e-05,-4.86e-06,0.0,0 STARLINK-4488,1 53534U 22101H   23343.64918490 -.00000486  00000-0 -12433-4 0  9999,2 53534  53.2142 159.6465 0002035  78.5654 281.5567 15.08828377 72226,6917.916,95.438,541.189,538.373,0.0
53534.0,STARLINK-4488,PAYLOAD,2023-12-09 21:56:21,15.08841566,0.000164,53.2145,158.4562,84.6831,275.4349,-0.00051606,-8.492e-05,0.0,0 STARLINK-4488,1 53534U 22101H   23343.91413741 -.00008492  00000-0 -51606-3 0  9997,2 53534  53.2145 158.4562 0001640  84.6831 275.4349 15.08841566 72269,6917.876,95.437,540.875,538.606,0.0
53534.0,STARLINK-4488,PAYLOAD,2023-12-10 12:14:50,15.08831322,0.0001698,53.2148,155.7802,70.5826,289.5349,0.00020806,3.024e-05,0.0,0 STARLINK-4488,1 53534U 22101H   23344.51031090  .00003024  00000-0  20806-3 0  9999,2 53534  53.2148 155.7802 0001698  70.5826 289.5349 15.08831322 72355,6917.907,95.438,540.947,538.597,0.0
53534.0,STARLINK-4488,PAYLOAD,2023-12-10 18:36:23,15.08833832,0.0001587,53.215,154.59,80.7754,279.3417,0.00023131,3.395e-05,0.0,0 STARLINK-4488,1 53534U 22101H   23344.77527113  .00003395  00000-0  23131-3 0  9998,2 53534  53.2150 154.5900 0001587  80.7754 279.3417 15.08833832 72399,6917.899,95.438,540.862,538.666,0.0
53534.0,STARLINK-4488,PAYLOAD,2023-12-11 16:51:47,15.08838818,0.0001519,53.2152,150.4259,83.2063,276.9102,0.00021358,3.113e-05,0.0,0 STARLINK-4488,1 53534U 22101H   23345.70263198  .00003113  00000-0  21358-3 0  9999,2 53534  53.2152 150.4259 0001519  83.2063 276.9102 15.08838818 72538,6917.884,95.438,540.8,538.698,0.0
53534.0,STARLINK-4488,PAYLOAD,2023-12-12 18:17:57,15.08846682,0.0001522,53.2155,145.6681,82.3775,277.739,0.00018502,2.658e-05,0.0,0 STARLINK-4488,1 53534U 22101H   23346.76246839  .00002658  00000-0  18502-3 0  9999,2 53534  53.2155 145.6681 0001522  82.3775 277.7390 15.08846682 72693,6917.86,95.437,540.778,538.672,0.0
53534.0,STARLINK-4488,PAYLOAD,2023-12-13 14:57:57,15.08846003,0.0001533,53.2155,141.8018,78.7634,281.353,0.00015944,2.251e-05,0.0,0 STARLINK-4488,1 53534U 22101H   23347.62358759  .00002251  00000-0  15944-3 0  9996,2 53534  53.2155 141.8018 0001533  78.7634 281.3530 15.08846003 72829,6917.862,95.437,540.788,538.667,0.0
53534.0,STARLINK-4488,PAYLOAD,2023-12-13 18:08:44,15.08848139,0.0001558,53.2158,141.2091,81.2622,278.8547,0.00018234,2.616e-05,0.0,0 STARLINK-4488,1 53534U 22101H   23347.75606636  .00002616  00000-0  18234-3 0  9990,2 53534  53.2158 141.2091 0001558  81.2622 278.8547 15.08848139 72843,6917.856,95.437,540.798,538.643,0.0
53534.0,STARLINK-4488,PAYLOAD,2023-12-14 16:24:08,15.08842393,0.0001788,53.2165,137.0483,73.0105,287.1083,7.363e-05,8.84e-06,0.0,0 STARLINK-4488,1 53534U 22101H   23348.68342954  .00000884  00000-0  73630-4 0  9990,2 53534  53.2165 137.0483 0001788  73.0105 287.1083 15.08842393 72988,6917.873,95.437,540.975,538.501,0.0
53534.0,STARLINK-4488,PAYLOAD,2023-12-15 14:39:32,15.08835241,0.0001504,53.2166,132.8851,96.1171,263.9993,1.7027e-05,-1.7e-07,0.0,0 STARLINK-4488,1 53534U 22101H   23349.61079448 -.00000017  00000-0  17027-4 0  9996,2 53534  53.2166 132.8851 0001504  96.1171 263.9993 15.08835241 73129,6917.895,95.438,540.8,538.719,0.0
53534.0,STARLINK-4488,PAYLOAD,2023-12-15 16:14:55,15.08834196,0.0001495,53.2163,132.586,96.5767,263.5396,1.8307e-06,-2.59e-06,0.0,0 STARLINK-4488,1 53534U 22101H   23349.67703488 -.00000259  00000-0  18307-5 0  9991,2 53534  53.2163 132.5860 0001495  96.5767 263.5396 15.08834196 73139,6917.898,95.438,540.797,538.729,0.0
53534.0,STARLINK-4488,PAYLOAD,2023-12-16 14:30:19,15.08851742,0.0001276,53.2158,128.4162,91.8895,268.2243,0.00018057,2.588e-05,0.0,0 STARLINK-4488,1 53534U 22101H   23350.60438752  .00002588  00000-0  18057-3 0  9991,2 53534  53.2158 128.4162 0001276  91.8895 268.2243 15.08851742 73273,6917.844,95.437,540.592,538.827,0.0
53534.0,STARLINK-4488,PAYLOAD,2023-12-17 12:45:43,15.08837706,0.0001483,53.2187,124.2621,96.3601,263.756,0.00017878,2.558e-05,0.0,0 STARLINK-4488,1 53534U 22101H   23351.53175592  .00002558  00000-0  17878-3 0  9991,2 53534  53.2187 124.2621 0001483  96.3601 263.7560 15.08837706 73416,6917.887,95.438,540.778,538.726,0.0
53534.0,STARLINK-4488,PAYLOAD,2023-12-17 14:21:06,15.0883833,0.0001479,53.2179,123.9639,92.1644,267.9517,0.00016807,2.388e-05,0.0,0 STARLINK-4488,1 53534U 22101H   23351.59799560  .00002388  00000-0  16807-3 0  9996,2 53534  53.2179 123.9639 0001479  92.1644 267.9517 15.08838330 73421,6917.885,95.438,540.774,538.727,0.0
53534.0,STARLINK-4488,PAYLOAD,2023-12-17 15:56:29,15.08839548,0.0001573,53.2179,123.6679,98.6685,261.4486,0.00016682,2.368e-05,0.0,0 STARLINK-4488,1 53534U 22101H   23351.66423464  .00002368  00000-0  16682-3 0  9990,2 53534  53.2179 123.6679 0001573  98.6685 261.4486 15.08839548 73430,6917.882,95.438,540.835,538.659,0.0
